UPSAT                   
1 42716U 98067LX  17345.88481900  .00024102  00000-0  25613-3 0  9997
2 42716  51.6369 225.6358 0002366 233.4403 126.6374 15.63906510 32368
